NORAD_CAT_ID,OBJECT_NAME,OBJECT_TYPE,EPOCH,MEAN_MOTION,ECCENTRICITY,INCLINATION,RA_OF_ASC_NODE,ARG_OF_PERICENTER,MEAN_ANOMALY,BSTAR,MEAN_MOTION_DOT,MEAN_MOTION_DDOT,TLE_LINE0,TLE_LINE1,TLE_LINE2,SEMIMAJOR_AXIS,PERIOD,APOGEE,PERIGEE,DECAYED
49437.0,STARLINK-3130,PAYLOAD,2022-06-20 10:37:28,15.08837593,0.000255,53.217,186.5403,34.6971,325.4187,-1.3527e-05,-5.04e-06,0.0,0 STARLINK-3130,1 49437U 21104AF  22171.44268808 -.00000504  00000-0 -13527-4 0  9991,2 49437  53.2170 186.5403 0002550  34.6971 325.4187 15.08837593 33865,6917.888000000001,95.438,541.5169999999998,537.989,0.0
49437.0,STARLINK-3130,PAYLOAD,2022-06-20 20:09:47,15.08838134,0.0002586,53.217,184.7563,34.3478,325.7681,-1.1262e-05,-4.68e-06,0.0,0 STARLINK-3130,1 49437U 21104AF  22171.84012781 -.00000468  00000-0 -11262-4 0  9995,2 49437  53.2170 184.7563 0002586  34.3478 325.7681 15.08838134 34999,6917.886,95.438,541.54,537.962,0.0
49437.0,STARLINK-3130,PAYLOAD,2022-06-21 10:28:15,15.08841075,0.0002618,53.217,182.0801,35.3099,324.8066,-1.6945e-05,-5.58e-06,0.0,0 STARLINK-3130,1 49437U 21104AF  22172.43628594 -.00000558  00000-0 -16945-4 0  9999,2 49437  53.2170 182.0801 0002618  35.3099 324.8066 15.08841075 34019,6917.877,95.437,541.553,537.931,0.0
49437.0,STARLINK-3130,PAYLOAD,2022-06-21 20:00:34,15.0883485,0.0002634,53.2169,180.2959,35.7021,324.4147,8.771799999999999e-05,1.108e-05,0.0,0 STARLINK-3130,1 49437U 21104AF  22172.83372702  .00001108  00000-0  87718-4 0  9996,2 49437  53.2169 180.2959 0002634  35.7021 324.4147 15.08834850 34073,6917.896,95.438,541.5830000000002,537.939,0.0
49437.0,STARLINK-3130,PAYLOAD,2022-06-22 02:22:06,15.08837391,0.0002643,53.2169,179.1064,36.395,323.7222,9.3136e-05,1.194e-05,0.0,0 STARLINK-3130,1 49437U 21104AF  22173.09868623  .00001194  00000-0  93136-4 0  9993,2 49437  53.2169 179.1064 0002643  36.3950 323.7222 15.08837391 35187,6917.888000000001,95.438,541.582,537.925,0.0
49437.0,STARLINK-3130,PAYLOAD,2022-06-22 07:08:15,15.08838268,0.0002669,53.2169,178.2144,36.5248,323.5926,9.7645e-05,1.266e-05,0.0,0 STARLINK-3130,1 49437U 21104AF  22173.29740602  .00001266  00000-0  97645-4 0  9990,2 49437  53.2169 178.2144 0002669  36.5248 323.5926 15.08838268 34144,6917.886,95.438,541.597,537.904,0.0
49437.0,STARLINK-3130,PAYLOAD,2022-06-22 19:51:20,15.08841493,0.000271,53.2171,175.8356,37.1256,322.9923,9.2261e-05,1.18e-05,0.0,0 STARLINK-3130,1 49437U 21104AF  22173.82732410  .00001180  00000-0  92261-4 0  9991,2 49437  53.2171 175.8356 0002710  37.1256 322.9923 15.08841493 34221,6917.876,95.437,541.616,537.866,0.0
49437.0,STARLINK-3130,PAYLOAD,2022-06-23 02:12:54,15.08834094,0.000266,53.2173,174.6461,36.3977,323.7195,-5.1565e-06,-3.71e-06,0.0,0 STARLINK-3130,1 49437U 21104AF  22174.09229194 -.00000371  00000-0 -51565-5 0  9997,2 49437  53.2173 174.6461 0002660  36.3977 323.7195 15.08834094 35334,6917.898,95.438,541.604,537.923,0.0
49437.0,STARLINK-3130,PAYLOAD,2022-06-23 06:59:03,15.08832482,0.0002647,53.2171,173.7535,38.0547,322.0631,-4.6655e-05,-1.031e-05,0.0,0 STARLINK-3130,1 49437U 21104AF  22174.29101470 -.00001031  00000-0 -46655-4 0  9992,2 49437  53.2171 173.7535 0002647  38.0547 322.0631 15.08832482 34291,6917.903,95.438,541.6,537.937,0.0
49437.0,STARLINK-3130,PAYLOAD,2022-06-23 19:42:09,15.08829709,0.0002661,53.2171,171.3741,38.0962,322.0218,-4.5232e-05,-1.008e-05,0.0,0 STARLINK-3130,1 49437U 21104AF  22174.82093873 -.00001008  00000-0 -45232-4 0  9992,2 49437  53.2171 171.3741 0002661  38.0962 322.0218 15.08829709 34379,6917.9119999999975,95.438,541.618,537.936,0.0
49437.0,STARLINK-3130,PAYLOAD,2022-06-24 08:25:14,15.08820084,0.0002884,53.2173,168.9958,31.9547,328.1619,0.00015112,2.116e-05,0.0,0 STARLINK-3130,1 49437U 21104AF  22175.35086148  .00002116  00000-0  15112-3 0  9990,2 49437  53.2173 168.9958 0002884  31.9547 328.1619 15.08820084 35528,6917.941,95.439,541.8009999999998,537.811,0.0
49437.0,STARLINK-3130,PAYLOAD,2022-06-24 17:57:33,15.08834503,0.000277,53.2172,167.2121,39.9383,320.1812,-2.7969e-05,-7.34e-06,0.0,0 STARLINK-3130,1 49437U 21104AF  22175.74829913 -.00000734  00000-0 -27969-4 0  9998,2 49437  53.2172 167.2121 0002770  39.9383 320.1812 15.08834503 35585,6917.897,95.438,541.678,537.846,0.0
49437.0,STARLINK-3130,PAYLOAD,2022-06-25 08:16:01,15.08831171,0.000279,53.2173,164.5359,40.423,319.697,8.0682e-05,9.96e-06,0.0,0 STARLINK-3130,1 49437U 21104AF  22176.34446029  .00000996  00000-0  80682-4 0  9997,2 49437  53.2173 164.5359 0002790  40.4230 319.6970 15.08831171 34607,6917.906999999997,95.438,541.702,537.842,0.0
49437.0,STARLINK-3130,PAYLOAD,2022-06-25 17:48:20,15.08833013,0.0002808,53.2174,162.7518,41.2157,318.9047,8.3929e-05,1.047e-05,0.0,0 STARLINK-3130,1 49437U 21104AF  22176.74190098  .00001047  00000-0  83929-4 0  9998,2 49437  53.2174 162.7518 0002808  41.2157 318.9047 15.08833013 34662,6917.901999999999,95.438,541.7090000000002,537.8240000000002,0.0
49437.0,STARLINK-3130,PAYLOAD,2022-06-26 04:56:02,15.08838511,0.0002855,53.2174,160.6704,42.0987,318.0224,9.2158e-05,1.178e-05,0.0,0 STARLINK-3130,1 49437U 21104AF  22177.20557897  .00001178  00000-0  92158-4 0  9993,2 49437  53.2174 160.6704 0002855  42.0987 318.0224 15.08838511 35801,6917.885,95.438,541.725,537.775,0.0
49437.0,STARLINK-3130,PAYLOAD,2022-06-26 06:31:25,15.08839531,0.0002861,53.2174,160.3731,42.203,317.9182,9.9179e-05,1.29e-05,0.0,0 STARLINK-3130,1 49437U 21104AF  22177.27181820  .00001290  00000-0  99179-4 0  9994,2 49437  53.2174 160.3731 0002861  42.2030 317.9182 15.08839531 34742,6917.882,95.438,541.726,537.768,0.0
49437.0,STARLINK-3130,PAYLOAD,2022-06-26 17:39:06,15.08842552,0.0002885,53.2175,158.2916,43.121,317.0008,0.00010121,1.323e-05,0.0,0 STARLINK-3130,1 49437U 21104AF  22177.73549575  .00001323  00000-0  10121-3 0  9996,2 49437  53.2175 158.2916 0002885  43.1210 317.0008 15.08842552 34813,6917.873000000001,95.437,541.7330000000002,537.742,0.0
49437.0,STARLINK-3130,PAYLOAD,2022-06-27 04:46:48,15.08847067,0.0002984,53.2173,156.2101,44.8378,315.2855,0.00010199,1.335e-05,0.0,0 STARLINK-3130,1 49437U 21104AF  22178.19917175  .00001335  00000-0  10199-3 0  9990,2 49437  53.2173 156.2101 0002984  44.8378 315.2855 15.08847067 35950,6917.859,95.437,541.788,537.659,0.0
49437.0,STARLINK-3130,PAYLOAD,2022-06-27 17:29:54,15.08838251,0.000295,53.2176,153.8313,44.394,315.7288,6.053e-06,-1.92e-06,0.0,0 STARLINK-3130,1 49437U 21104AF  22178.72909919 -.00000192  00000-0  60530-5 0  9993,2 49437  53.2176 153.8313 0002950  44.3940 315.7288 15.08838251 36034,6917.886,95.438,541.7919999999998,537.71,0.0
49437.0,STARLINK-3130,PAYLOAD,2022-06-28 07:48:22,15.08841572,0.0002955,53.2178,151.1552,44.7475,315.3755,-1.4422e-05,-5.18e-06,0.0,0 STARLINK-3130,1 49437U 21104AF  22179.32525710 -.00000518  00000-0 -14422-4 0  9994,2 49437  53.2178 151.1552 0002955  44.7475 315.3755 15.08841572 35050,6917.876,95.437,541.785,537.696,0.0
49437.0,STARLINK-3130,PAYLOAD,2022-06-28 17:20:40,15.08842651,0.0003008,53.2178,149.3714,45.8246,314.2993,-1.1771e-05,-4.76e-06,0.0,0 STARLINK-3130,1 49437U 21104AF  22179.72269571 -.00000476  00000-0 -11771-4 0  9995,2 49437  53.2178 149.3714 0003008  45.8246 314.2993 15.08842651 35115,6917.871999999999,95.437,541.818,537.656,0.0
49437.0,STARLINK-3130,PAYLOAD,2022-06-29 02:52:59,15.08846513,0.0003042,53.2175,147.5868,47.5788,312.5461,-1.4807e-05,-5.24e-06,0.0,0 STARLINK-3130,1 49437U 21104AF  22180.12013206 -.00000524  00000-0 -14807-4 0  9990,2 49437  53.2175 147.5868 0003042  47.5788 312.5461 15.08846513 36247,6917.86,95.437,541.83,537.621,0.0
49437.0,STARLINK-3130,PAYLOAD,2022-06-29 07:39:08,15.08844231,0.0002955,53.2176,146.6947,47.8971,312.2272,3.1653000000000003e-05,2.15e-06,0.0,0 STARLINK-3130,1 49437U 21104AF  22180.31885088  .00000215  00000-0  31653-4 0  9999,2 49437  53.2176 146.6947 0002955  47.8971 312.2272 15.08844231 35202,6917.8669999999975,95.437,541.7769999999998,537.688,0.0
49437.0,STARLINK-3130,PAYLOAD,2022-06-30 04:19:10,15.08830961,0.0003017,53.2177,142.829,47.9346,312.1902,-1.9288e-05,-5.96e-06,0.0,0 STARLINK-3130,1 49437U 21104AF  22181.17998056 -.00000596  00000-0 -19288-4 0  9998,2 49437  53.2177 142.8290 0003017  47.9346 312.1902 15.08830961 36406,6917.908,95.438,541.86,537.686,0.0
49437.0,STARLINK-3130,PAYLOAD,2022-06-30 07:29:56,15.08830844,0.0003034,53.2177,142.2344,48.1142,312.0109,-3.7593e-05,-8.87e-06,0.0,0 STARLINK-3130,1 49437U 21104AF  22181.31246184 -.00000887  00000-0 -37593-4 0  9994,2 49437  53.2177 142.2344 0003034  48.1142 312.0109 15.08830844 35357,6917.908,95.438,541.872,537.674,0.0
49437.0,STARLINK-3130,PAYLOAD,2022-06-30 20:13:01,15.0883397,0.0003045,53.2176,139.8556,48.9441,311.1814,-1.9057e-05,-5.92e-06,0.0,0 STARLINK-3130,1 49437U 21104AF  22181.84238112 -.00000592  00000-0 -19057-4 0  9992,2 49437  53.2176 139.8556 0003045  48.9441 311.1814 15.08833970 35430,6917.899,95.438,541.87,537.6569999999998,0.0
49437.0,STARLINK-3130,PAYLOAD,2022-07-01 04:09:57,15.08836801,0.0003058999999999,53.2177,138.369,49.50899999999999,310.6168,-1.948e-05,-5.99e-06,0.0,0 STARLINK-3130,1 49437U 21104AF  22182.17358022 -.00000599  00000-0 -19480-4 0  9999,2 49437  53.2177 138.3690 0003059  49.5090 310.6168 15.08836801 36552,6917.89,95.438,541.871,537.639,0.0
49437.0,STARLINK-3130,PAYLOAD,2022-07-01 13:42:16,15.08838686,0.000307,53.2177,136.5849,49.9986,310.1276,-1.8421e-05,-5.82e-06,0.0,0 STARLINK-3130,1 49437U 21104AF  22182.57101949 -.00000582  00000-0 -18421-4 0  9993,2 49437  53.2177 136.5849 0003070  49.9986 310.1276 15.08838686 35545,6917.884,95.438,541.873,537.626,0.0
49437.0,STARLINK-3130,PAYLOAD,2022-07-01 20:03:48,15.08838579,0.0003081,53.2178,135.3954,50.381,309.7454,4.647e-06,-2.15e-06,0.0,0 STARLINK-3130,1 49437U 21104AF  22182.83597913 -.00000215  00000-0  46470-5 0  9990,2 49437  53.2178 135.3954 0003081  50.3810 309.7454 15.08838579 35581,6917.885,95.438,541.881,537.618,0.0
